[{"OBJECT_NAME":"STARLINK-32802","OBJECT_ID":"2025-014D","EPOCH":"2026-03-09T05:55:15.528000","MEAN_MOTION":15.27580243,"ECCENTRICITY":0.00012119,"INCLINATION":43.0003,"RA_OF_ASC_NODE":156.5437,"ARG_OF_PERICENTER":247.8832,"MEAN_ANOMALY":112.1891,"EPHEMERIS_TYPE":0,"CLASSIFICATION_TYPE":"U","NORAD_CAT_ID":62738,"ELEMENT_SET_NO":999,"REV_AT_EPOCH":6319,"BSTAR":0.0012850512,"MEAN_MOTION_DOT":0.00035269,"MEAN_MOTION_DDOT":0},{"OBJECT_NAME":"CZ-6A DEB","OBJECT_ID":"2024-140ABG","EPOCH":"2026-03-09T16:43:29.524800","MEAN_MOTION":15.18896608,"ECCENTRICITY":0.00616087,"INCLINATION":89.2171,"RA_OF_ASC_NODE":295.9508,"ARG_OF_PERICENTER":79.2706,"MEAN_ANOMALY":281.5467,"EPHEMERIS_TYPE":0,"CLASSIFICATION_TYPE":"U","NORAD_CAT_ID":61498,"ELEMENT_SET_NO":999,"REV_AT_EPOCH":8006,"BSTAR":0.0048163661,"MEAN_MOTION_DOT":0.0010689,"MEAN_MOTION_DDOT":0}]
